FLOCK 4Q-16             
1 58271U 23174R   26194.76914678  .00013455  00000+0  23874-3 0  9994
2 58271  97.3834 283.5140 0006869  81.3627 278.8403 15.50328649149692
FLOCK 4Q-11             
1 58273U 23174T   26194.80715547  .00014443  00000+0  25166-3 0  9999
2 58273  97.3864 284.1865 0006482  76.0074 284.1899 15.50828531149713
FLOCK 4Q-28             
1 58280U 23174AA  26194.80096669  .00020303  00000+0  28539-3 0  9993
2 58280  97.3890 286.9031 0004931  67.9986 292.1792 15.56712963149889
FLOCK 4Q-27             
1 58282U 23174AC  26194.86720619  .00019735  00000+0  27555-3 0  9994
2 58282  97.3817 286.3794 0004129  73.0009 287.1699 15.56904463149904
FLOCK 4Q-7              
1 58318U 23174BQ  26194.82147655  .00021538  00000+0  29610-3 0  9991
2 58318  97.3917 287.2484 0004584  48.8717 311.2934 15.57302543149893
FLOCK 4Q-2              
1 58320U 23174BS  26194.79195573  .00016012  00000+0  27922-3 0  9997
2 58320  97.3848 283.8844 0004968  55.9786 304.1937 15.50792640149722
FLOCK 4Q-9              
1 58322U 23174BU  26194.74460647  .00017013  00000+0  29126-3 0  9991
2 58322  97.3854 283.9470 0005648  56.7579 303.4214 15.51294952149704
FLOCK 4Q-4              
1 58327U 23174BZ  26194.75747984  .00014373  00000+0  25956-3 0  9992
2 58327  97.3830 283.0782 0005902  79.6695 280.5221 15.49816756149674
FLOCK 4Q-13             
1 58328U 23174CA  26194.80974502  .00015151  00000+0  24571-3 0  9994
2 58328  97.4011 286.4259 0006045  59.6968 300.4882 15.52838662149807
FLOCK 4BE-18            
1 60480U 24149N   26194.74692794  .00008225  00000+0  19055-3 0  9997
2 60480  97.3730 278.7690 0005022 148.5485 211.6064 15.42687183106408
FLOCK 4BE-7             
1 60481U 24149P   26194.77891818  .00013420  00000+0  32284-3 0  9991
2 60481  97.3763 278.0934 0004169 151.5968 208.5507 15.41414233106343
FLOCK 4BE-36            
1 60486U 24149U   26194.76901521  .00010438  00000+0  23468-3 0  9998
2 60486  97.3748 279.5294 0004541 156.4073 203.7383 15.43510105106459
FLOCK 4BE-25            
1 60487U 24149V   26194.80770581  .00008960  00000+0  23022-3 0  9997
2 60487  97.3801 278.1499 0003544 145.8168 214.3307 15.39520639106330
FLOCK 4BE-31            
1 60488U 24149W   26194.77431361  .00013418  00000+0  28519-3 0  9994
2 60488  97.3801 280.4730 0003743 155.2753 204.8676 15.45117620106489
FLOCK 4BE-20            
1 60489U 24149X   26194.78417189  .00008669  00000+0  22817-3 0  9995
2 60489  97.3699 276.9384 0004862 156.6790 203.4677 15.38786216106301
FLOCK 4BE-23            
1 60490U 24149Y   26194.71660000  .00008336  00000+0  22271-3 0  9997
2 60490  97.3804 277.2581 0004444 156.9386 203.2060 15.38339641106270
