{"fetched_at":"2026-07-14T06:34:23.487Z","source":"https://celestrak.org/NORAD/elements/gp.php?GROUP=planet&FORMAT=JSON","constellation":"superdove","records":[{"OBJECT_NAME":"FLOCK 4Q-16","OBJECT_ID":"2023-174R","EPOCH":"2026-07-13T18:27:34.281792","CLASSIFICATION_TYPE":"U","MEAN_MOTION":15.50328649,"ECCENTRICITY":0.0006869,"INCLINATION":97.3834,"RA_OF_ASC_NODE":283.514,"ARG_OF_PERICENTER":81.3627,"MEAN_ANOMALY":278.8403,"EPHEMERIS_TYPE":0,"NORAD_CAT_ID":58271,"ELEMENT_SET_NO":999,"REV_AT_EPOCH":14969,"BSTAR":0.00023874,"MEAN_MOTION_DOT":0.00013455,"MEAN_MOTION_DDOT":0},{"OBJECT_NAME":"FLOCK 4Q-11","OBJECT_ID":"2023-174T","EPOCH":"2026-07-13T19:22:18.232608","CLASSIFICATION_TYPE":"U","MEAN_MOTION":15.50828531,"ECCENTRICITY":0.0006482,"INCLINATION":97.3864,"RA_OF_ASC_NODE":284.1865,"ARG_OF_PERICENTER":76.0074,"MEAN_ANOMALY":284.1899,"EPHEMERIS_TYPE":0,"NORAD_CAT_ID":58273,"ELEMENT_SET_NO":999,"REV_AT_EPOCH":14971,"BSTAR":0.00025166,"MEAN_MOTION_DOT":0.00014443,"MEAN_MOTION_DDOT":0},{"OBJECT_NAME":"FLOCK 4Q-28","OBJECT_ID":"2023-174AA","EPOCH":"2026-07-13T19:13:23.522016","CLASSIFICATION_TYPE":"U","MEAN_MOTION":15.56712963,"ECCENTRICITY":0.0004931,"INCLINATION":97.389,"RA_OF_ASC_NODE":286.9031,"ARG_OF_PERICENTER":67.9986,"MEAN_ANOMALY":292.1792,"EPHEMERIS_TYPE":0,"NORAD_CAT_ID":58280,"ELEMENT_SET_NO":999,"REV_AT_EPOCH":14988,"BSTAR":0.00028539,"MEAN_MOTION_DOT":0.00020303,"MEAN_MOTION_DDOT":0},{"OBJECT_NAME":"FLOCK 4Q-27","OBJECT_ID":"2023-174AC","EPOCH":"2026-07-13T20:48:46.614816","CLASSIFICATION_TYPE":"U","MEAN_MOTION":15.56904463,"ECCENTRICITY":0.0004129,"INCLINATION":97.3817,"RA_OF_ASC_NODE":286.3794,"ARG_OF_PERICENTER":73.0009,"MEAN_ANOMALY":287.1699,"EPHEMERIS_TYPE":0,"NORAD_CAT_ID":58282,"ELEMENT_SET_NO":999,"REV_AT_EPOCH":14990,"BSTAR":0.00027555,"MEAN_MOTION_DOT":0.00019735,"MEAN_MOTION_DDOT":0},{"OBJECT_NAME":"FLOCK 4Q-7","OBJECT_ID":"2023-174BQ","EPOCH":"2026-07-13T19:42:55.573920","CLASSIFICATION_TYPE":"U","MEAN_MOTION":15.57302543,"ECCENTRICITY":0.0004584,"INCLINATION":97.3917,"RA_OF_ASC_NODE":287.2484,"ARG_OF_PERICENTER":48.8717,"MEAN_ANOMALY":311.2934,"EPHEMERIS_TYPE":0,"NORAD_CAT_ID":58318,"ELEMENT_SET_NO":999,"REV_AT_EPOCH":14989,"BSTAR":0.0002961,"MEAN_MOTION_DOT":0.00021538,"MEAN_MOTION_DDOT":0},{"OBJECT_NAME":"FLOCK 4Q-2","OBJECT_ID":"2023-174BS","EPOCH":"2026-07-13T19:00:24.975072","CLASSIFICATION_TYPE":"U","MEAN_MOTION":15.5079264,"ECCENTRICITY":0.0004968,"INCLINATION":97.3848,"RA_OF_ASC_NODE":283.8844,"ARG_OF_PERICENTER":55.9786,"MEAN_ANOMALY":304.1937,"EPHEMERIS_TYPE":0,"NORAD_CAT_ID":58320,"ELEMENT_SET_NO":999,"REV_AT_EPOCH":14972,"BSTAR":0.00027922,"MEAN_MOTION_DOT":0.00016012,"MEAN_MOTION_DDOT":0},{"OBJECT_NAME":"FLOCK 4Q-9","OBJECT_ID":"2023-174BU","EPOCH":"2026-07-13T17:52:13.999008","CLASSIFICATION_TYPE":"U","MEAN_MOTION":15.51294952,"ECCENTRICITY":0.0005648,"INCLINATION":97.3854,"RA_OF_ASC_NODE":283.947,"ARG_OF_PERICENTER":56.7579,"MEAN_ANOMALY":303.4214,"EPHEMERIS_TYPE":0,"NORAD_CAT_ID":58322,"ELEMENT_SET_NO":999,"REV_AT_EPOCH":14970,"BSTAR":0.00029126,"MEAN_MOTION_DOT":0.00017013,"MEAN_MOTION_DDOT":0},{"OBJECT_NAME":"FLOCK 4Q-4","OBJECT_ID":"2023-174BZ","EPOCH":"2026-07-13T18:10:46.258176","CLASSIFICATION_TYPE":"U","MEAN_MOTION":15.49816756,"ECCENTRICITY":0.0005902,"INCLINATION":97.383,"RA_OF_ASC_NODE":283.0782,"ARG_OF_PERICENTER":79.6695,"MEAN_ANOMALY":280.5221,"EPHEMERIS_TYPE":0,"NORAD_CAT_ID":58327,"ELEMENT_SET_NO":999,"REV_AT_EPOCH":14967,"BSTAR":0.00025956,"MEAN_MOTION_DOT":0.00014373,"MEAN_MOTION_DDOT":0},{"OBJECT_NAME":"FLOCK 4Q-13","OBJECT_ID":"2023-174CA","EPOCH":"2026-07-13T19:26:01.969728","CLASSIFICATION_TYPE":"U","MEAN_MOTION":15.52838662,"ECCENTRICITY":0.0006045,"INCLINATION":97.4011,"RA_OF_ASC_NODE":286.4259,"ARG_OF_PERICENTER":59.6968,"MEAN_ANOMALY":300.4882,"EPHEMERIS_TYPE":0,"NORAD_CAT_ID":58328,"ELEMENT_SET_NO":999,"REV_AT_EPOCH":14980,"BSTAR":0.00024571,"MEAN_MOTION_DOT":0.00015151,"MEAN_MOTION_DDOT":0},{"OBJECT_NAME":"FLOCK 4BE-18","OBJECT_ID":"2024-149N","EPOCH":"2026-07-13T17:55:34.574016","CLASSIFICATION_TYPE":"U","MEAN_MOTION":15.42687183,"ECCENTRICITY":0.0005022,"INCLINATION":97.373,"RA_OF_ASC_NODE":278.769,"ARG_OF_PERICENTER":148.5485,"MEAN_ANOMALY":211.6064,"EPHEMERIS_TYPE":0,"NORAD_CAT_ID":60480,"ELEMENT_SET_NO":999,"REV_AT_EPOCH":10640,"BSTAR":0.00019055,"MEAN_MOTION_DOT":0.00008225,"MEAN_MOTION_DDOT":0},{"OBJECT_NAME":"FLOCK 4BE-7","OBJECT_ID":"2024-149P","EPOCH":"2026-07-13T18:41:38.530752","CLASSIFICATION_TYPE":"U","MEAN_MOTION":15.41414233,"ECCENTRICITY":0.0004169,"INCLINATION":97.3763,"RA_OF_ASC_NODE":278.0934,"ARG_OF_PERICENTER":151.5968,"MEAN_ANOMALY":208.5507,"EPHEMERIS_TYPE":0,"NORAD_CAT_ID":60481,"ELEMENT_SET_NO":999,"REV_AT_EPOCH":10634,"BSTAR":0.00032284,"MEAN_MOTION_DOT":0.0001342,"MEAN_MOTION_DDOT":0},{"OBJECT_NAME":"FLOCK 4BE-36","OBJECT_ID":"2024-149U","EPOCH":"2026-07-13T18:27:22.914144","CLASSIFICATION_TYPE":"U","MEAN_MOTION":15.43510105,"ECCENTRICITY":0.0004541,"INCLINATION":97.3748,"RA_OF_ASC_NODE":279.5294,"ARG_OF_PERICENTER":156.4073,"MEAN_ANOMALY":203.7383,"EPHEMERIS_TYPE":0,"NORAD_CAT_ID":60486,"ELEMENT_SET_NO":999,"REV_AT_EPOCH":10645,"BSTAR":0.00023468,"MEAN_MOTION_DOT":0.00010438,"MEAN_MOTION_DDOT":0},{"OBJECT_NAME":"FLOCK 4BE-25","OBJECT_ID":"2024-149V","EPOCH":"2026-07-13T19:23:05.781984","CLASSIFICATION_TYPE":"U","MEAN_MOTION":15.39520639,"ECCENTRICITY":0.0003544,"INCLINATION":97.3801,"RA_OF_ASC_NODE":278.1499,"ARG_OF_PERICENTER":145.8168,"MEAN_ANOMALY":214.3307,"EPHEMERIS_TYPE":0,"NORAD_CAT_ID":60487,"ELEMENT_SET_NO":999,"REV_AT_EPOCH":10633,"BSTAR":0.00023022,"MEAN_MOTION_DOT":0.0000896,"MEAN_MOTION_DDOT":0},{"OBJECT_NAME":"FLOCK 4BE-31","OBJECT_ID":"2024-149W","EPOCH":"2026-07-13T18:35:00.695904","CLASSIFICATION_TYPE":"U","MEAN_MOTION":15.4511762,"ECCENTRICITY":0.0003743,"INCLINATION":97.3801,"RA_OF_ASC_NODE":280.473,"ARG_OF_PERICENTER":155.2753,"MEAN_ANOMALY":204.8676,"EPHEMERIS_TYPE":0,"NORAD_CAT_ID":60488,"ELEMENT_SET_NO":999,"REV_AT_EPOCH":10648,"BSTAR":0.00028519,"MEAN_MOTION_DOT":0.00013418,"MEAN_MOTION_DDOT":0},{"OBJECT_NAME":"FLOCK 4BE-20","OBJECT_ID":"2024-149X","EPOCH":"2026-07-13T18:49:12.451296","CLASSIFICATION_TYPE":"U","MEAN_MOTION":15.38786216,"ECCENTRICITY":0.0004862,"INCLINATION":97.3699,"RA_OF_ASC_NODE":276.9384,"ARG_OF_PERICENTER":156.679,"MEAN_ANOMALY":203.4677,"EPHEMERIS_TYPE":0,"NORAD_CAT_ID":60489,"ELEMENT_SET_NO":999,"REV_AT_EPOCH":10630,"BSTAR":0.00022817,"MEAN_MOTION_DOT":0.00008669,"MEAN_MOTION_DDOT":0},{"OBJECT_NAME":"FLOCK 4BE-23","OBJECT_ID":"2024-149Y","EPOCH":"2026-07-13T17:11:54.240000","CLASSIFICATION_TYPE":"U","MEAN_MOTION":15.38339641,"ECCENTRICITY":0.0004444,"INCLINATION":97.3804,"RA_OF_ASC_NODE":277.2581,"ARG_OF_PERICENTER":156.9386,"MEAN_ANOMALY":203.206,"EPHEMERIS_TYPE":0,"NORAD_CAT_ID":60490,"ELEMENT_SET_NO":999,"REV_AT_EPOCH":10627,"BSTAR":0.00022271,"MEAN_MOTION_DOT":0.00008336,"MEAN_MOTION_DDOT":0}]}
